OBJECT_NAME,OBJECT_ID,EPOCH,MEAN_MOTION,ECCENTRICITY,INCLINATION,RA_OF_ASC_NODE,ARG_OF_PERICENTER,MEAN_ANOMALY,EPHEMERIS_TYPE,CLASSIFICATION_TYPE,NORAD_CAT_ID,ELEMENT_SET_NO,REV_AT_EPOCH,BSTAR,MEAN_MOTION_DOT,MEAN_MOTION_DDOT
INTELSAT 902 (IS-902),2001-039A,2026-06-13T16:20:10.472928,1.00271249,.00045037,6.1088,71.8271,6.9820,18.1229,0,U,26900,999,9066,0,-.277E-5,0
INTELSAT 904 (IS-904),2002-007A,2026-06-13T01:12:23.771232,1.00271515,.00065047,6.9094,69.2332,3.3250,175.4234,0,U,27380,999,5172,0,-.218E-5,0
DIRECTV 5 (TEMPO 1),2002-023A,2026-06-13T21:11:02.577408,1.00271396,.00032089,4.8692,75.3508,21.1135,13.3832,0,U,27426,999,8809,0,-.51E-6,0
INTELSAT 905 (IS-905),2002-027A,2026-06-13T11:14:26.678976,1.00271998,.00038085,6.7440,69.8438,20.0607,203.2730,0,U,27438,999,5132,0,.1E-5,0
GALAXY 3C (G-3C),2002-030A,2026-06-13T21:15:24.657984,1.00271214,.00015403,3.7227,78.0192,34.6972,13.4813,0,U,27445,999,4646,0,-.145E-5,0
INTELSAT 906 (IS-906),2002-041A,2026-06-13T22:56:49.907616,1.00272307,.00046514,5.7949,72.9619,3.6505,233.9930,0,U,27513,999,8699,0,.18E-6,0
GALAXY 13 (HORIZONS-1),2003-044A,2026-06-13T17:34:22.240704,1.00269471,.00022967,1.4108,83.9082,347.9194,303.8082,0,U,27954,999,4653,0,.142E-5,0
INTELSAT 10-02,2004-022A,2026-06-13T19:59:35.227104,1.00271751,.00003292,0.0129,334.6339,218.1169,8.2766,0,U,28358,999,8052,0,-.1E-7,0
DIRECTV 8,2005-019A,2026-06-13T17:43:13.891008,1.00270831,.00027481,0.0258,68.5496,17.9205,322.3320,0,U,28659,999,7703,0,.12E-6,0
GALAXY 28 (G-28),2005-022A,2026-06-13T19:52:02.328672,1.00271291,.00028738,3.2903,78.9748,2.0568,92.0150,0,U,28702,999,5194,0,-.192E-5,0
GALAXY 16 (G-16),2006-023A,2026-06-13T21:14:17.265984,1.00270623,.00024323,0.0478,145.3473,302.9267,33.4881,0,U,29236,999,7294,0,-.117E-5,0
DIRECTV 9S,2006-043A,2026-06-13T21:13:39.826272,1.00270835,.00048349,2.4120,80.9408,11.0248,27.4537,0,U,29494,999,5135,0,-.105E-5,0
GALAXY 17 (G-17),2007-016B,2026-06-13T21:18:16.883424,1.00269685,.00047469,2.9637,79.9408,21.7162,35.1031,0,U,31307,999,6977,0,-.198E-5,0
INTELSAT 11 (IS-11),2007-044B,2026-06-13T22:22:30.636192,0.99052194,.00021952,3.5568,78.7072,91.0886,208.2372,0,U,32253,999,6841,0,-.275E-5,0
HORIZONS-2,2007-063B,2026-06-13T21:21:24.083712,1.00269479,.00037241,2.5934,80.6645,0.0989,68.0013,0,U,32388,999,6778,0,-.245E-5,0
DIRECTV 11,2008-013A,2026-06-13T10:58:13.992096,1.00271658,.00003175,0.0087,254.9847,115.1892,316.9799,0,U,32729,999,4555,0,-.114E-5,0
GALAXY 18 (G-18),2008-024A,2026-06-13T17:42:06.499008,1.00271427,.00026827,0.0251,6.8014,72.3830,325.3812,0,U,32951,999,4581,0,0,0
INTELSAT 25 (IS-25),2008-034A,2026-06-13T22:21:15.755040,0.99036317,.00031193,2.7012,80.4086,58.9452,234.3418,0,U,33153,999,6565,0,-.265E-5,0
GALAXY 19 (G-19),2008-045A,2026-06-13T21:14:47.218272,1.00270337,.00024105,0.0206,355.5349,91.0256,37.3324,0,U,33376,999,6487,0,0,0
FM-5,2009-034A,2026-06-13T21:17:54.419424,1.00271423,.00009336,0.0188,294.1596,7.5661,193.7979,0,U,35493,999,4661,0,-.19E-5,0
INTELSAT 14 (IS-14),2009-064A,2026-06-13T19:47:02.808384,1.00270665,.00021764,0.0148,37.5026,36.8370,79.5697,0,U,36097,999,6057,0,-.263E-5,0
INTELSAT 15 (IS-15),2009-067A,2026-06-13T23:06:59.508864,1.00270957,.0002023,0.0178,43.4677,42.8649,247.8365,0,U,36106,999,4119,0,-.175E-5,0
DIRECTV 12,2009-075A,2026-06-13T16:05:11.908608,1.00266386,.00005846,0.0464,157.5074,209.9292,33.1205,0,U,36131,999,4651,0,-.92E-6,0
INTELSAT 16 (IS-16),2010-006A,2026-06-13T19:38:03.669792,1.00270593,.00018411,0.0114,352.1137,109.4399,18.8935,0,U,36397,999,5962,0,-.234E-5,0
XM-5,2010-053A,2026-06-13T21:09:40.208832,1.00271658,.0002967,0.0640,273.2148,287.6063,263.5932,0,U,37185,999,5745,0,-.13E-6,0
INTELSAT 17 (IS-17),2010-065B,2026-06-13T22:43:07.897152,1.00271152,.00025682,0.0058,70.7045,20.2090,218.1166,0,U,37238,999,5321,0,.8E-7,0
INTELSAT 28 (IS-28),2011-016A,2026-06-13T21:33:23.934816,1.00270453,.00035913,1.7976,82.6591,5.0835,106.1059,0,U,37392,999,5325,0,-.216E-5,0
INTELSAT 18 (IS-18),2011-056A,2026-06-13T20:51:11.980224,1.00271847,.00020162,0.0193,291.0655,169.6045,294.3178,0,U,37834,999,5377,0,.63E-6,0
INTELSAT 22 (IS-22),2012-011A,2026-06-13T22:51:07.682400,1.00272119,.00015593,0.0020,357.5675,83.5113,236.0498,0,U,38098,999,715,0,-.49E-6,0
INTELSAT 19 (IS-19),2012-030A,2026-06-13T20:47:12.362784,1.00270515,.00028239,0.0157,12.1142,78.0923,289.7676,0,U,38356,999,5041,0,-.47E-6,0
INTELSAT 20 (IS-20),2012-043A,2026-06-13T22:55:17.679072,1.00270701,.00016428,0.0045,80.0756,95.4150,139.1139,0,U,38740,999,5071,0,-.15E-6,0
