INTELSAT 902 (IS-902)   
1 26900U 01039A   26164.68067677 -.00000277  00000+0  00000+0 0  9991
2 26900   6.1088  71.8271 0004503   6.9820  18.1229  1.00271249 90665
INTELSAT 904 (IS-904)   
1 27380U 02007A   26164.05027513 -.00000218  00000+0  00000+0 0  9991
2 27380   6.9094  69.2332 0006504   3.3250 175.4234  1.00271515 51726
DIRECTV 5 (TEMPO 1)     
1 27426U 02023A   26164.88266872 -.00000051  00000+0  00000+0 0  9999
2 27426   4.8692  75.3508 0003208  21.1135  13.3832  1.00271396 88090
INTELSAT 905 (IS-905)   
1 27438U 02027A   26164.46836434  .00000100  00000+0  00000+0 0  9991
2 27438   6.7440  69.8438 0003808  20.0607 203.2730  1.00271998 51324
GALAXY 3C (G-3C)        
1 27445U 02030A   26164.88570206 -.00000145  00000+0  00000+0 0  9991
2 27445   3.7227  78.0192 0001540  34.6972  13.4813  1.00271214 46461
INTELSAT 906 (IS-906)   
1 27513U 02041A   26164.95613319  .00000018  00000+0  00000+0 0  9998
2 27513   5.7949  72.9619 0004651   3.6505 233.9930  1.00272307 86996
GALAXY 13 (HORIZONS-1)  
1 27954U 03044A   26164.73220186  .00000142  00000+0  00000+0 0  9991
2 27954   1.4108  83.9082 0002296 347.9194 303.8082  1.00269471 46531
INTELSAT 10-02          
1 28358U 04022A   26164.83304661 -.00000001  00000+0  00000+0 0  9994
2 28358   0.0129 334.6339 0000329 218.1169   8.2766  1.00271751 80521
DIRECTV 8               
1 28659U 05019A   26164.73835522  .00000012  00000+0  00000+0 0  9990
2 28659   0.0258  68.5496 0002748  17.9205 322.3320  1.00270831 77034
GALAXY 28 (G-28)        
1 28702U 05022A   26164.82780473 -.00000192  00000+0  00000+0 0  9997
2 28702   3.2903  78.9748 0002873   2.0568  92.0150  1.00271291 51941
GALAXY 16 (G-16)        
1 29236U 06023A   26164.88492206 -.00000117  00000+0  00000+0 0  9999
2 29236   0.0478 145.3473 0002432 302.9267  33.4881  1.00270623 72940
DIRECTV 9S              
1 29494U 06043A   26164.88448873 -.00000105  00000+0  00000+0 0  9995
2 29494   2.4120  80.9408 0004834  11.0248  27.4537  1.00270835 51351
GALAXY 17 (G-17)        
1 31307U 07016B   26164.88769541 -.00000198  00000+0  00000+0 0  9992
2 31307   2.9637  79.9408 0004746  21.7162  35.1031  1.00269685 69779
INTELSAT 11 (IS-11)     
1 32253U 07044B   26164.93229903 -.00000275  00000+0  00000+0 0  9999
2 32253   3.5568  78.7072 0002195  91.0886 208.2372  0.99052194 68416
HORIZONS-2              
1 32388U 07063B   26164.88986208 -.00000245  00000+0  00000+0 0  9998
2 32388   2.5934  80.6645 0003724   0.0989  68.0013  1.00269479 67784
DIRECTV 11              
1 32729U 08013A   26164.45710639 -.00000114  00000+0  00000+0 0  9994
2 32729   0.0087 254.9847 0000317 115.1892 316.9799  1.00271658 45550
GALAXY 18 (G-18)        
1 32951U 08024A   26164.73757522  .00000000  00000+0  00000+0 0  9999
2 32951   0.0251   6.8014 0002682  72.3830 325.3812  1.00271427 45816
INTELSAT 25 (IS-25)     
1 33153U 08034A   26164.93143235 -.00000265  00000+0  00000+0 0  9991
2 33153   2.7012  80.4086 0003119  58.9452 234.3418  0.99036317 65657
GALAXY 19 (G-19)        
1 33376U 08045A   26164.88526873  .00000000  00000+0  00000+0 0  9993
2 33376   0.0206 355.5349 0002410  91.0256  37.3324  1.00270337 64876
FM-5                    
1 35493U 09034A   26164.88743541 -.00000190  00000+0  00000+0 0  9998
2 35493   0.0188 294.1596 0000933   7.5661 193.7979  1.00271423 46611
INTELSAT 14 (IS-14)     
1 36097U 09064A   26164.82433806 -.00000263  00000+0  00000+0 0  9997
2 36097   0.0148  37.5026 0002176  36.8370  79.5697  1.00270665 60574
INTELSAT 15 (IS-15)     
1 36106U 09067A   26164.96318876 -.00000175  00000+0  00000+0 0  9997
2 36106   0.0178  43.4677 0002023  42.8649 247.8365  1.00270957 41196
DIRECTV 12              
1 36131U 09075A   26164.67027672 -.00000092  00000+0  00000+0 0  9991
2 36131   0.0464 157.5074 0000584 209.9292  33.1205  1.00266386 46511
INTELSAT 16 (IS-16)     
1 36397U 10006A   26164.81809803 -.00000234  00000+0  00000+0 0  9999
2 36397   0.0114 352.1137 0001841 109.4399  18.8935  1.00270593 59620
XM-5                    
1 37185U 10053A   26164.88171538 -.00000013  00000+0  00000+0 0  9996
2 37185   0.0640 273.2148 0002967 287.6063 263.5932  1.00271658 57450
INTELSAT 17 (IS-17)     
1 37238U 10065B   26164.94661918  .00000008  00000+0  00000+0 0  9994
2 37238   0.0058  70.7045 0002568  20.2090 218.1166  1.00271152 53210
INTELSAT 28 (IS-28)     
1 37392U 11016A   26164.89819369 -.00000216  00000+0  00000+0 0  9993
2 37392   1.7976  82.6591 0003591   5.0835 106.1059  1.00270453 53255
INTELSAT 18 (IS-18)     
1 37834U 11056A   26164.86888866  .00000063  00000+0  00000+0 0  9992
2 37834   0.0193 291.0655 0002016 169.6045 294.3178  1.00271847 53774
INTELSAT 22 (IS-22)     
1 38098U 12011A   26164.95217225 -.00000049  00000+0  00000+0 0  9997
2 38098   0.0020 357.5675 0001559  83.5113 236.0498  1.00272119  7159
INTELSAT 19 (IS-19)     
1 38356U 12030A   26164.86611531 -.00000047  00000+0  00000+0 0  9991
2 38356   0.0157  12.1142 0002823  78.0923 289.7676  1.00270515 50411
INTELSAT 20 (IS-20)     
1 38740U 12043A   26164.95506573 -.00000015  00000+0  00000+0 0  9996
2 38740   0.0045  80.0756 0001642  95.4150 139.1139  1.00270701 50714
